NORAD_CAT_ID,OBJECT_NAME,OBJECT_TYPE,EPOCH,MEAN_MOTION,ECCENTRICITY,INCLINATION,RA_OF_ASC_NODE,ARG_OF_PERICENTER,MEAN_ANOMALY,BSTAR,MEAN_MOTION_DOT,MEAN_MOTION_DDOT,TLE_LINE0,TLE_LINE1,TLE_LINE2,SEMIMAJOR_AXIS,PERIOD,APOGEE,PERIGEE,DECAYED
56809.0,STARLINK-6040,PAYLOAD,2024-08-08 13:06:19,14.98352452,0.0003522,70.0037,2.0097,274.4382,85.6374,0.00085779,0.00010163,0.0,0 STARLINK-6040,1 56809U 23078AU  24221.54606428  .00010163  00000-0  85779-3 0  9994,2 56809  70.0037   2.0097 0003522 274.4382  85.6374 14.98352452 66083,6950.123,96.106,574.436,569.541,0.0
56809.0,STARLINK-6040,PAYLOAD,2024-08-08 19:30:51,14.98360232,0.0003341,70.0039,1.3367,272.5745,87.5031,0.0012136,0.00014429,0.0,0 STARLINK-6040,1 56809U 23078AU  24221.81310040  .00014429  00000-0  12136-2 0  9991,2 56809  70.0039   1.3367 0003341 272.5745  87.5031 14.98360232 66387,6950.099,96.105,574.286,569.642,0.0
56809.0,STARLINK-6040,PAYLOAD,2024-08-09 13:08:19,14.98317539,0.0003882,70.0038,359.4863,280.5156,79.5565,-0.0014454,-0.00017292,0.0,0 STARLINK-6040,1 56809U 23078AU  24222.54744783 -.00017292  00000-0 -14454-2 0  9995,2 56809  70.0038 359.4863 0003882 280.5156  79.5565 14.98317539 66496,6950.231,96.108,574.795,569.398,0.0
56809.0,STARLINK-6040,PAYLOAD,2024-08-09 19:32:51,14.98324124,0.0003098,70.0043,358.8131,267.4612,92.6192,-0.00087003,-0.00010457,0.0,0 STARLINK-6040,1 56809U 23078AU  24222.81448803 -.00010457  00000-0 -87003-3 0  9996,2 56809  70.0043 358.8131 0003098 267.4612  92.6192 14.98324124 66538,6950.211,96.107,574.229,569.923,0.0
56809.0,STARLINK-6040,PAYLOAD,2024-08-10 14:46:29,14.98334366,0.0002933,70.0045,356.7935,269.2842,90.7981,0.0018774,0.00022382,0.0,0 STARLINK-6040,1 56809U 23078AU  24223.61562009  .00022382  00000-0  18774-2 0  9996,2 56809  70.0045 356.7935 0002933 269.2842  90.7981 14.98334366 66399,6950.179,96.107,574.083,570.006,0.0
56809.0,STARLINK-6040,PAYLOAD,2024-08-10 17:58:45,14.9834555,0.0002861,70.0045,356.4572,268.4785,91.6047,0.0021381,0.00025522,0.0,0 STARLINK-6040,1 56809U 23078AU  24223.74913834  .00025522  00000-0  21381-2 0  9993,2 56809  70.0045 356.4572 0002861 268.4785  91.6047 14.98345550 66671,6950.145,96.106,573.998,570.021,0.0
56809.0,STARLINK-6040,PAYLOAD,2024-08-11 01:59:25,14.98344389,0.0003203,70.0053,355.6143,263.4604,96.6191,0.0015625,0.00018607,0.0,0 STARLINK-6040,1 56809U 23078AU  24224.08293628  .00018607  00000-0  15625-2 0  9993,2 56809  70.0053 355.6143 0003203 263.4604  96.6191 14.98344389 66721,6950.148,96.106,574.24,569.787,0.0
56809.0,STARLINK-6040,PAYLOAD,2024-08-11 10:00:06,14.98329776,0.0002886,70.0045,354.7747,263.3116,96.7715,0.00043021,5.044e-05,0.0,0 STARLINK-6040,1 56809U 23078AU  24224.41674179  .00005044  00000-0  43021-3 0  9997,2 56809  70.0045 354.7747 0002886 263.3116  96.7715 14.98329776 66776,6950.194,96.107,574.064,570.053,0.0
56809.0,STARLINK-6040,PAYLOAD,2024-08-11 14:48:30,14.98335277,0.0002854,70.0044,354.2691,263.8914,96.192,0.0021914,0.00026156,0.0,0 STARLINK-6040,1 56809U 23078AU  24224.61702321  .00026156  00000-0  21914-2 0  9993,2 56809  70.0044 354.2691 0002854 263.8914  96.1920 14.98335277 66544,6950.177,96.107,574.025,570.058,0.0
56809.0,STARLINK-6040,PAYLOAD,2024-08-12 02:01:26,14.98361938,0.0004287,70.0044,353.0911,271.8762,88.1906,0.0028366,0.00033948,0.0,0 STARLINK-6040,1 56809U 23078AU  24225.08433770  .00033948  00000-0  28366-2 0  9999,2 56809  70.0044 353.0911 0004287 271.8762  88.1906 14.98361938 66872,6950.094,96.105,574.939,568.98,0.0
56809.0,STARLINK-6040,PAYLOAD,2024-08-12 10:02:07,14.9834156,0.0003145,70.0043,352.2499,270.8047,89.2751,0.0013152,0.0001564,0.0,0 STARLINK-6040,1 56809U 23078AU  24225.41814055  .00015640  00000-0  13152-2 0  9991,2 56809  70.0043 352.2499 0003145 270.8047  89.2751 14.98341560 66925,6950.157,96.106,574.208,569.836,0.0
56809.0,STARLINK-6040,PAYLOAD,2024-08-12 14:50:31,14.98388446,0.0003221,70.004,351.7442,270.6665,89.4124,0.0061444,0.00074114,0.0,0 STARLINK-6040,1 56809U 23078AU  24225.61841559  .00074114  00000-0  61444-2 0  9990,2 56809  70.0040 351.7442 0003221 270.6665  89.4124 14.98388446 66697,6950.012,96.103,574.116,569.639,0.0
56809.0,STARLINK-6040,PAYLOAD,2024-08-12 18:02:46,14.98411518,0.0003253,70.004,351.4073,272.5703,87.5083,0.0071102,0.00085976,0.0,0 STARLINK-6040,1 56809U 23078AU  24225.75193009  .00085976  00000-0  71102-2 0  9995,2 56809  70.0040 351.4073 0003253 272.5703  87.5083 14.98411518 66974,6949.941,96.102,574.067,569.545,0.0
56809.0,STARLINK-6040,PAYLOAD,2024-08-13 02:03:28,14.98341351,2.61e-05,70.0028,350.563,346.0057,14.1095,0.0083856,0.00101451,0.0,0 STARLINK-6040,1 56809U 23078AU  24226.08574557  .00101451  00000-0  83856-2 0  9999,2 56809  70.0028 350.5630 0000261 346.0057  14.1095 14.98341351 67027,6950.158,96.106,572.204,571.841,0.0
56809.0,STARLINK-6040,PAYLOAD,2024-08-13 10:04:08,14.98274796,0.0002577,70.0032,349.7245,270.6641,89.4223,0.0014172,0.00016833,0.0,0 STARLINK-6040,1 56809U 23078AU  24226.41954713  .00016833  00000-0  14172-2 0  9996,2 56809  70.0032 349.7245 0002577 270.6641  89.4223 14.98274796 67078,6950.364,96.111,574.02,570.438,0.0
56809.0,STARLINK-6040,PAYLOAD,2024-08-13 14:52:33,14.98293252,0.0002913,70.0034,349.219,265.2397,94.8429,0.00068461,8.077e-05,0.0,0 STARLINK-6040,1 56809U 23078AU  24226.61983096  .00008077  00000-0  68461-3 0  9996,2 56809  70.0034 349.2190 0002913 265.2397  94.8429 14.98293252 66846,6950.307,96.109,574.196,570.147,0.0
56809.0,STARLINK-6040,PAYLOAD,2024-08-14 11:42:19,14.98329231,0.0002934,70.0024,347.0307,266.8732,93.2091,0.0021746,0.0002595,0.0,0 STARLINK-6040,1 56809U 23078AU  24227.48772639  .00025950  00000-0  21746-2 0  9994,2 56809  70.0024 347.0307 0002934 266.8732  93.2091 14.98329231 67233,6950.195,96.107,574.099,570.021,0.0
56809.0,STARLINK-6040,PAYLOAD,2024-08-14 13:18:27,14.9833093,0.0002915,70.0028,346.8624,267.0223,93.0603,0.0020951,0.00024995,0.0,0 STARLINK-6040,1 56809U 23078AU  24227.55448655  .00024995  00000-0  20951-2 0  9995,2 56809  70.0028 346.8624 0002915 267.0223  93.0603 14.98330930 66989,6950.19,96.107,574.081,570.029,0.0
56809.0,STARLINK-6040,PAYLOAD,2024-08-14 18:06:51,14.98336785,0.0002805,70.0031,346.3572,267.0679,93.0159,0.0018424,0.00021963,0.0,0 STARLINK-6040,1 56809U 23078AU  24227.75476651  .00021963  00000-0  18424-2 0  9998,2 56809  70.0031 346.3572 0002805 267.0679  93.0159 14.98336785 67018,6950.172,96.107,573.986,570.087,0.0
56809.0,STARLINK-6040,PAYLOAD,2024-08-15 14:56:35,14.98367398,0.0002703,70.0033,344.1688,269.5535,90.5314,0.001571,0.0001872,0.0,0 STARLINK-6040,1 56809U 23078AU  24228.62263383  .00018720  00000-0  15710-2 0  9993,2 56809  70.0033 344.1688 0002703 269.5535  90.5314 14.98367398 67142,6950.077,96.105,573.821,570.064,0.0
56809.0,STARLINK-6040,PAYLOAD,2024-08-16 00:33:23,14.98366418,0.0002911,70.003,343.1602,268.2771,91.8055,0.0010284,0.00012211,0.0,0 STARLINK-6040,1 56809U 23078AU  24229.02318675  .00012211  00000-0  10284-2 0  9993,2 56809  70.0030 343.1602 0002911 268.2771  91.8055 14.98366418 67466,6950.08,96.105,573.968,569.922,0.0
56809.0,STARLINK-6040,PAYLOAD,2024-08-16 10:10:11,14.98347271,0.0002874,70.0033,342.1497,267.4396,92.6434,0.00010052,1.107e-05,0.0,0 STARLINK-6040,1 56809U 23078AU  24229.42374529  .00001107  00000-0  10052-3 0  9993,2 56809  70.0033 342.1497 0002874 267.4396  92.6434 14.98347271 67525,6950.139,96.106,574.002,570.007,0.0
56809.0,STARLINK-6040,PAYLOAD,2024-08-16 18:10:51,14.98352455,0.0002934,70.0034,341.3082,267.7442,92.3381,0.00083858,9.933e-05,0.0,0 STARLINK-6040,1 56809U 23078AU  24229.75754272  .00009933  00000-0  83858-3 0  9995,2 56809  70.0034 341.3082 0002934 267.7442  92.3381 14.98352455 67314,6950.123,96.106,574.028,569.949,0.0
56809.0,STARLINK-6040,PAYLOAD,2024-08-17 06:59:56,14.98341508,0.000272,70.0011,339.9575,255.9306,104.1551,0.00048982,5.758e-05,0.0,0 STARLINK-6040,1 56809U 23078AU  24230.29162254  .00005758  00000-0  48982-3 0  9999,2 56809  70.0011 339.9575 0002720 255.9306 104.1551 14.98341508 67655,6950.157,96.106,573.913,570.132,0.0
56809.0,STARLINK-6040,PAYLOAD,2024-08-18 11:50:20,14.9834131,0.0002677,70.0042,336.9339,256.252,103.8342,0.00021345,2.456e-05,0.0,0 STARLINK-6040,1 56809U 23078AU  24231.49329710  .00002456  00000-0  21345-3 0  9990,2 56809  70.0042 336.9339 0002677 256.2520 103.8342 14.98341310 67832,6950.158,96.106,573.883,570.162,0.0
56809.0,STARLINK-6040,PAYLOAD,2024-08-18 16:38:44,14.98344918,0.000265,70.004,336.4288,250.6785,109.4087,0.00024968,2.889e-05,0.0,0 STARLINK-6040,1 56809U 23078AU  24231.69357365  .00002889  00000-0  24968-3 0  9993,2 56809  70.0040 336.4288 0002650 250.6785 109.4087 14.98344918 67600,6950.147,96.106,573.854,570.17,0.0
56809.0,STARLINK-6040,PAYLOAD,2024-08-19 13:28:30,14.9832903,0.0002939,70.0051,334.2444,264.0937,95.9887,-1.8851e-05,-3.18e-06,0.0,0 STARLINK-6040,1 56809U 23078AU  24232.56146166 -.00000318  00000-0 -18851-4 0  9997,2 56809  70.0051 334.2444 0002939 264.0937  95.9887 14.98329030 67997,6950.196,96.107,574.104,570.018,0.0
56809.0,STARLINK-6040,PAYLOAD,2024-08-20 13:30:30,14.98336503,0.0003023,70.0028,331.7134,267.7951,92.2862,0.00022316,2.571e-05,0.0,0 STARLINK-6040,1 56809U 23078AU  24233.56285802  .00002571  00000-0  22316-3 0  9990,2 56809  70.0028 331.7134 0003023 267.7951  92.2862 14.98336503 67884,6950.173,96.107,574.139,569.937,0.0
56809.0,STARLINK-6040,PAYLOAD,2024-08-20 16:42:46,14.98342947,0.0003027,70.0029,331.3769,268.5033,91.5779,0.00039412,4.614e-05,0.0,0 STARLINK-6040,1 56809U 23078AU  24233.69637547  .00004614  00000-0  39412-3 0  9996,2 56809  70.0029 331.3769 0003027 268.5033  91.5779 14.98342947 68169,6950.153,96.106,574.122,569.914,0.0
56809.0,STARLINK-6040,PAYLOAD,2024-08-21 11:56:24,14.98320661,0.0002375,70.0036,329.3582,254.9446,105.1451,6.5966e-05,6.94e-06,0.0,0 STARLINK-6040,1 56809U 23078AU  24234.49750732  .00000694  00000-0  65966-4 0  9995,2 56809  70.0036 329.3582 0002375 254.9446 105.1451 14.98320661 68280,6950.222,96.108,573.737,570.436,0.0
